NORAD_CAT_ID,OBJECT_NAME,OBJECT_TYPE,EPOCH,MEAN_MOTION,ECCENTRICITY,INCLINATION,RA_OF_ASC_NODE,ARG_OF_PERICENTER,MEAN_ANOMALY,BSTAR,MEAN_MOTION_DOT,MEAN_MOTION_DDOT,TLE_LINE0,TLE_LINE1,TLE_LINE2,SEMIMAJOR_AXIS,PERIOD,APOGEE,PERIGEE,DECAYED
56796.0,STARLINK-6049,PAYLOAD,2023-08-24 19:27:39,15.69922655,0.0003602,69.9982,172.8063,272.834,87.2443,8.2277e-06,7.76e-06,0.0,0 STARLINK-6049,1 56796U 23078AF  23236.81087065  .00000776  00000-0  82277-5 0  9995,2 56796  69.9982 172.8063 0003602 272.8340  87.2443 15.69922655 13734,6737.255,91.724,361.547,356.694,0.0
56796.0,STARLINK-6049,PAYLOAD,2023-08-24 22:31:08,15.69937412,0.0002771,69.9985,172.4502,241.0966,118.9952,2.1779e-05,2.408e-05,0.0,0 STARLINK-6049,1 56796U 23078AF  23236.93829104  .00002408  00000-0  21779-4 0  9999,2 56796  69.9985 172.4502 0002771 241.0966 118.9952 15.69937412 13755,6737.213,91.723,360.945,357.211,0.0
56796.0,STARLINK-6049,PAYLOAD,2023-08-25 06:09:55,15.69926539,0.0002751,69.9986,171.5535,271.9452,88.1429,1.0201e-05,1.014e-05,0.0,0 STARLINK-6049,1 56796U 23078AF  23237.25688689  .00001014  00000-0  10201-4 0  9996,2 56796  69.9986 171.5535 0002751 271.9452  88.1429 15.69926539 13803,6737.244,91.724,360.963,357.256,0.0
56796.0,STARLINK-6049,PAYLOAD,2023-08-25 22:59:11,15.69915288,0.0003553,69.9982,169.5822,273.7007,86.3782,8.5572e-06,8.16e-06,0.0,0 STARLINK-6049,1 56796U 23078AF  23237.95777623  .00000816  00000-0  85572-5 0  9993,2 56796  69.9982 169.5822 0003553 273.7007  86.3782 15.69915288 13915,6737.276,91.725,361.535,356.748,0.0
56796.0,STARLINK-6049,PAYLOAD,2023-08-26 09:41:27,15.69925523,0.0003475,69.9984,168.3291,269.4948,90.585,1.9313e-05,2.11e-05,0.0,0 STARLINK-6049,1 56796U 23078AF  23238.40378687  .00002110  00000-0  19313-4 0  9999,2 56796  69.9984 168.3291 0003475 269.4948  90.5850 15.69925523 13986,6737.247,91.724,361.453,356.771,0.0
56796.0,STARLINK-6049,PAYLOAD,2023-08-26 20:23:42,15.69932735,0.0003558,69.9984,167.0753,270.1981,89.8807,-2.8233e-06,-5.53e-06,0.0,0 STARLINK-6049,1 56796U 23078AF  23238.84980276 -.00000553  00000-0 -28233-5 0  9993,2 56796  69.9984 167.0753 0003558 270.1981  89.8807 15.69932735 13798,6737.226,91.724,361.489,356.694,0.0
56796.0,STARLINK-6049,PAYLOAD,2023-08-26 21:55:27,15.69938914,0.0003759,69.9983,166.8963,267.4853,92.5912,5.5433e-06,4.54e-06,0.0,0 STARLINK-6049,1 56796U 23078AF  23238.91351248  .00000454  00000-0  55433-5 0  9992,2 56796  69.9983 166.8963 0003759 267.4853  92.5912 15.69938914 14061,6737.209,91.723,361.606,356.541,0.0
56796.0,STARLINK-6049,PAYLOAD,2023-08-27 07:05:59,15.69922207,0.0002822,69.9986,165.822,265.2588,94.8286,2.6954e-05,3.029e-05,0.0,0 STARLINK-6049,1 56796U 23078AF  23239.29582305  .00003029  00000-0  26954-4 0  9990,2 56796  69.9986 165.8220 0002822 265.2588  94.8286 15.69922207 14124,6737.257,91.724,361.023,357.22,0.0
56796.0,STARLINK-6049,PAYLOAD,2023-08-27 20:51:44,15.69928214,0.0003089,69.9988,164.2094,268.2694,91.8148,2.7787e-05,3.13e-05,0.0,0 STARLINK-6049,1 56796U 23078AF  23239.86926739  .00003130  00000-0  27787-4 0  9994,2 56796  69.9988 164.2094 0003089 268.2694  91.8148 15.69928214 13953,6737.239,91.724,361.186,357.023,0.0
56796.0,STARLINK-6049,PAYLOAD,2023-08-27 22:23:31,15.6991184,0.000354,69.9983,164.0301,272.6867,87.3924,-4.2959e-06,-7.29e-06,0.0,0 STARLINK-6049,1 56796U 23078AF  23239.93300008 -.00000729  00000-0 -42959-5 0  9999,2 56796  69.9983 164.0301 0003540 272.6867  87.3924 15.69911840 14220,6737.286,91.725,361.536,356.766,0.0
56796.0,STARLINK-6049,PAYLOAD,2023-08-28 07:34:00,15.6992423,0.0003601,69.9983,162.9551,267.7353,92.343,2.1327e-05,2.352e-05,0.0,0 STARLINK-6049,1 56796U 23078AF  23240.31528911  .00002352  00000-0  21327-4 0  9995,2 56796  69.9983 162.9551 0003601 267.7353  92.3430 15.69924230 14288,6737.251,91.724,361.542,356.69,0.0
56796.0,STARLINK-6049,PAYLOAD,2023-08-28 21:19:46,15.69926898,0.0003656,69.9978,161.3426,269.5091,90.5686,1.4025e-05,1.474e-05,0.0,0 STARLINK-6049,1 56796U 23078AF  23240.88873823  .00001474  00000-0  14025-4 0  9993,2 56796  69.9978 161.3426 0003656 269.5091  90.5686 15.69926898 14112,6737.243,91.724,361.571,356.645,0.0
56796.0,STARLINK-6049,PAYLOAD,2023-08-29 04:58:32,15.69925392,0.0003407,69.998,160.4466,265.6902,94.3905,2.3023e-06,6.4e-07,0.0,0 STARLINK-6049,1 56796U 23078AF  23241.20732419  .00000064  00000-0  23023-5 0  9998,2 56796  69.9980 160.4466 0003407 265.6902  94.3905 15.69925392 14160,6737.247,91.724,361.408,356.817,0.0
56796.0,STARLINK-6049,PAYLOAD,2023-08-29 21:47:49,15.69927496,0.0003866,69.9974,158.4763,277.3014,82.7742,-4.9194e-07,-2.72e-06,0.0,0 STARLINK-6049,1 56796U 23078AF  23241.90820868 -.00000272  00000-0 -49194-6 0  9992,2 56796  69.9974 158.4763 0003866 277.3014  82.7742 15.69927496 14531,6737.241,91.724,361.711,356.502,0.0
56796.0,STARLINK-6049,PAYLOAD,2023-08-30 11:33:35,15.69918918,0.0003383,69.998,156.8667,279.8139,80.2675,1.3095e-05,1.362e-05,0.0,0 STARLINK-6049,1 56796U 23078AF  23242.48166478  .00001362  00000-0  13095-4 0  9994,2 56796  69.9980 156.8667 0003383 279.8139  80.2675 15.69918918 14629,6737.266,91.724,361.41,356.852,0.0
56796.0,STARLINK-6049,PAYLOAD,2023-08-31 04:22:50,15.69935505,0.0003965,69.9985,154.8966,274.1074,85.9669,4.3653e-05,5.042e-05,0.0,0 STARLINK-6049,1 56796U 23078AF  23243.18253215  .00005042  00000-0  43653-4 0  9990,2 56796  69.9985 154.8966 0003965 274.1074  85.9669 15.69935505 14734,6737.219,91.724,361.755,356.412,0.0
56796.0,STARLINK-6049,PAYLOAD,2023-09-01 10:57:58,15.69865814,0.0003412,69.9958,151.3146,262.5268,97.554,-8.881e-05,-0.00010852,0.0,0 STARLINK-6049,1 56796U 23078AF  23244.45692343 -.00010852  00000-0 -88810-4 0  9991,2 56796  69.9958 151.3146 0003412 262.5268  97.5540 15.69865814 14933,6737.418,91.728,361.582,356.984,0.0
56796.0,STARLINK-6049,PAYLOAD,2023-09-01 17:04:53,15.69946286,0.000475,69.9947,150.5965,264.1965,95.869,2.2702e-05,2.52e-05,0.0,0 STARLINK-6049,1 56796U 23078AF  23244.71172583  .00002520  00000-0  22702-4 0  9998,2 56796  69.9947 150.5965 0004750 264.1965  95.8690 15.69946286 14973,6737.188,91.723,362.253,355.853,0.0
56796.0,STARLINK-6049,PAYLOAD,2023-09-01 21:40:08,15.69934666,0.0004726,69.9947,150.059,263.1766,96.8892,4.6232e-05,5.353e-05,0.0,0 STARLINK-6049,1 56796U 23078AF  23244.90287911  .00005353  00000-0  46232-4 0  9992,2 56796  69.9947 150.0590 0004726 263.1766  96.8892 15.69934666 15002,6737.221,91.724,362.27,355.902,0.0
56796.0,STARLINK-6049,PAYLOAD,2023-09-02 19:04:40,15.69954133,0.0003335,69.9975,147.5507,263.3819,96.6997,4.604e-05,5.333e-05,0.0,0 STARLINK-6049,1 56796U 23078AF  23245.79491029  .00005333  00000-0  46040-4 0  9992,2 56796  69.9975 147.5507 0003335 263.3819  96.6997 15.69954133 14888,6737.165,91.722,361.277,356.783,0.0
56796.0,STARLINK-6049,PAYLOAD,2023-09-03 01:11:41,15.69933901,0.0003512,69.9976,146.8316,273.1391,86.9402,2.6689e-05,2.999e-05,0.0,0 STARLINK-6049,1 56796U 23078AF  23246.04978400  .00002999  00000-0  26689-4 0  9996,2 56796  69.9976 146.8316 0003512 273.1391  86.9402 15.69933901 15187,6737.223,91.724,361.454,356.722,0.0
56796.0,STARLINK-6049,PAYLOAD,2023-09-03 10:22:13,15.69914322,0.000355,69.9983,145.7568,271.2787,88.8002,-5.1774e-06,-8.35e-06,0.0,0 STARLINK-6049,1 56796U 23078AF  23246.43209863 -.00000835  00000-0 -51774-5 0  9992,2 56796  69.9983 145.7568 0003550 271.2787  88.8002 15.69914322 15242,6737.279,91.725,361.536,356.752,0.0
56796.0,STARLINK-6049,PAYLOAD,2023-09-04 00:07:58,15.69931975,0.000338,69.9988,144.1429,275.0251,85.0559,3.1487e-05,3.576e-05,0.0,0 STARLINK-6049,1 56796U 23078AF  23247.00554355  .00003576  00000-0  31487-4 0  9996,2 56796  69.9988 144.1429 0003380 275.0251  85.0559 15.69931975 15334,6737.229,91.724,361.371,356.816,0.0
56796.0,STARLINK-6049,PAYLOAD,2023-09-04 03:11:29,15.69927679,0.0003787,69.9979,143.7849,274.6726,85.4037,2.3704e-05,2.639e-05,0.0,0 STARLINK-6049,1 56796U 23078AF  23247.13297879  .00002639  00000-0  23704-4 0  9997,2 56796  69.9979 143.7849 0003787 274.6726  85.4037 15.69927679 15092,6737.241,91.724,361.657,356.555,0.0
56796.0,STARLINK-6049,PAYLOAD,2023-09-04 16:57:20,15.69847742,0.0003989,70.0,142.1752,254.0848,105.9908,-0.00011856,-0.00014401,0.0,0 STARLINK-6049,1 56796U 23078AF  23247.70648395 -.00014401  00000-0 -11856-3 0  9999,2 56796  70.0000 142.1752 0003989 254.0848 105.9908 15.69847742 15443,6737.47,91.729,362.022,356.647,0.0
56796.0,STARLINK-6049,PAYLOAD,2023-09-04 18:29:14,15.69629078,0.0003965,69.999,141.9953,272.1351,87.939,-0.0005851,-0.00069154,0.0,0 STARLINK-6049,1 56796U 23078AF  23247.77030169 -.00069154  00000-0 -58510-3 0  9993,2 56796  69.9990 141.9953 0003965 272.1351  87.9390 15.69629078 15457,6738.095,91.741,362.632,357.289,0.0
56796.0,STARLINK-6049,PAYLOAD,2023-09-05 23:34:17,15.68414513,0.0005813,69.9992,138.5974,216.2239,143.8563,-0.002027,-0.00223448,0.0,0 STARLINK-6049,1 56796U 23078AF  23248.98214936 -.00223448  00000-0 -20270-2 0  9992,2 56796  69.9992 138.5974 0005813 216.2239 143.8563 15.68414513 15642,6741.573,91.812,367.357,359.52,0.0
56796.0,STARLINK-6049,PAYLOAD,2023-09-06 12:00:00,15.65860801,0.0003575,69.9981,137.1483,264.9509,133.9814,-0.0091444,-0.00842776,0.0,0 STARLINK-6049,1 56796U 23078AF  23249.50001157 -.00842776  00000-0 -91444-2 0  9992,2 56796  69.9981 137.1483 0003575 264.9509 133.9814 15.65860801 15723,6748.901,91.962,373.179,368.354,0.0
56796.0,STARLINK-6049,PAYLOAD,2023-09-06 14:00:01,15.65704015,0.0003474,69.998,136.9156,263.3466,245.1811,-0.0091953,-0.00842159,0.0,0 STARLINK-6049,1 56796U 23078AF  23249.58334491 -.00842159  00000-0 -91953-2 0  9990,2 56796  69.9980 136.9156 0003474 263.3466 245.1811 15.65704015  5905,6749.352,91.971,373.562,368.872,0.0
56796.0,STARLINK-6049,PAYLOAD,2023-09-06 20:00:01,15.65271934,0.0003471,69.9984,136.2171,265.8758,211.1494,-0.010488,-0.00948243,0.0,0 STARLINK-6049,1 56796U 23078AF  23249.83334491 -.00948243  00000-0 -10488-1 0  9992,2 56796  69.9984 136.2171 0003471 265.8758 211.1494 15.65271934 15772,6750.594,91.997,374.802,370.116,0.0
